{
    "links": {
        "self": "http://www.neowsapp.com/rest/v1/neo/3695412?api_key=iIulBulltgU6a56xZRHN4H3l9WmuAYTsLGpBGhQ2"
    },
    "id": "3695412",
    "neo_reference_id": "3695412",
    "name": "(2014 UY175)",
    "designation": "2014 UY175",
    "nasa_jpl_url": "http://ssd.jpl.nasa.gov/sbdb.cgi?sstr=3695412",
    "absolute_magnitude_h": 22.2,
    "estimated_diameter": {
        "kilometers": {
            "estimated_diameter_min": 0.096506147,
            "estimated_diameter_max": 0.2157943048
        },
        "meters": {
            "estimated_diameter_min": 96.5061469579,
            "estimated_diameter_max": 215.7943048444
        },
        "miles": {
            "estimated_diameter_min": 0.059966121,
            "estimated_diameter_max": 0.134088323
        },
        "feet": {
            "estimated_diameter_min": 316.6212271853,
            "estimated_diameter_max": 707.9865871058
        }
    },
    "is_potentially_hazardous_asteroid": false,
    "close_approach_data": [
        {
            "close_approach_date": "2014-09-24",
            "close_approach_date_full": "2014-Sep-24 20:43",
            "epoch_date_close_approach": 1411591380000,
            "relative_velocity": {
                "kilometers_per_second": "5.905074683",
                "kilometers_per_hour": "21258.2688586272",
                "miles_per_hour": "13209.0615582953"
            },
            "miss_distance": {
                "astronomical": "0.3746741124",
                "lunar": "145.7482297236",
                "kilometers": "56050449.159180588",
                "miles": "34828134.1054765944"
            },
            "orbiting_body": "Earth"
        }
    ],
    "orbital_data": {
        "orbit_id": "3",
        "orbit_determination_date": "2017-04-06 08:37:43",
        "first_observation_date": "2014-10-05",
        "last_observation_date": "2014-10-31",
        "data_arc_in_days": 26,
        "observations_used": 21,
        "orbit_uncertainty": "7",
        "minimum_orbit_intersection": ".295614",
        "jupiter_tisserand_invariant": "3.429",
        "epoch_osculation": "2459000.5",
        "eccentricity": ".4477320895720994",
        "semi_major_axis": "2.295882600086263",
        "inclination": "11.72715861554874",
        "ascending_node_longitude": "23.35842175366529",
        "orbital_period": "1270.641225772813",
        "perihelion_distance": "1.267942286137416",
        "perihelion_argument": "317.6311511981783",
        "aphelion_distance": "3.32382291403511",
        "perihelion_time": "2459432.134208667188",
        "mean_anomaly": "237.7087410919794",
        "mean_motion": ".2833215172764801",
        "equinox": "J2000",
        "orbit_class": {
            "orbit_class_type": "AMO",
            "orbit_class_description": "Near-Earth asteroid orbits similar to that of 1221 Amor",
            "orbit_class_range": "1.017 AU < q (perihelion) < 1.3 AU"
        }
    },
    "is_sentry_object": false
}